BEIDOU-2 IGSO-1 (C06)   
1 36828U 10036A   25249.80650252 -.00000145  00000+0  00000+0 0  9996
2 36828  54.2790 165.5296 0048505 216.3769 359.7158  1.00253223 55259
BEIDOU-2 G4 (C04)       
1 37210U 10057A   25253.48239204 -.00000113  00000+0  00000+0 0  9999
2 37210   2.9469  70.2303 0008099 169.1106  84.1585  1.00271140 54488
BEIDOU-2 IGSO-2 (C07)   
1 37256U 10068A   25252.48977407 -.00000174  00000+0  00000+0 0  9991
2 37256  48.0541 275.3086 0048709 216.3517 140.5685  1.00261625 53977
BEIDOU-2 IGSO-3 (C08)   
1 37384U 11013A   25251.87773737 -.00000159  00000+0  00000+0 0  9999
2 37384  62.0163  42.8182 0036076 178.9801 187.9391  1.00293536 52842
BEIDOU-2 IGSO-4 (C09)   
1 37763U 11038A   25251.72474547 -.00000069  00000+0  00000+0 0  9998
2 37763  54.5804 168.2021 0144953 230.7837 303.6652  1.00260805 51823
BEIDOU-2 IGSO-5 (C10)   
1 37948U 11073A   25253.52247593 -.00000116  00000+0  00000+0 0  9994
2 37948  48.1899 275.0027 0110434 221.3873 137.4331  1.00267390 50324
BEIDOU-2 G5 (C05)       
1 38091U 12008A   25253.60045115  .00000055  00000+0  00000+0 0  9999
2 38091   2.8710  71.0228 0006584 229.3327 324.4603  1.00275268 49569
BEIDOU-2 M3 (C11)       
1 38250U 12018A   25252.35960421 -.00000043  00000+0  00000+0 0  9992
2 38250  55.9965 314.3307 0023901 266.6140  93.1910  1.86233563 90717
BEIDOU-2 M4 (C12)       
1 38251U 12018B   25252.82937380 -.00000044  00000+0  00000+0 0  9994
2 38251  55.8985 313.5517 0014901 266.0760  93.8307  1.86231950 90721
BEIDOU-2 M6 (C14)       
1 38775U 12050B   25252.00312269  .00000014  00000+0  00000+0 0  9990
2 38775  56.2948  72.2084 0011304 357.6928   2.3539  1.86230929 88073
BEIDOU-2 G6 (C02)       
1 38953U 12059A   25253.60547784 -.00000177  00000+0  00000+0 0  9997
2 38953   3.7056  76.4445 0006387 314.5433 260.9154  1.00271409 47101
BEIDOU-3S IGSO-1S (C31) 
1 40549U 15019A   25253.63043719 -.00000144  00000+0  00000+0 0  9996
2 40549  49.7245 298.8308 0041445 196.2202 174.7853  1.00258865 38273
BEIDOU-3S M2S (C58)     
1 40748U 15037A   25249.81191939 -.00000031  00000+0  00000+0 0  9995
2 40748  55.1205 311.7919 0012246 253.6529 106.2936  1.86229114 68848
BEIDOU-3S M1S (C57)     
1 40749U 15037B   25253.27625498 -.00000045  00000+0  00000+0 0  9998
2 40749  55.1140 311.6637 0002384 356.5930   3.4801  1.86253831 68914
BEIDOU-3S IGSO-2S (C56) 
1 40938U 15053A   25253.00163911 -.00000104  00000+0  00000+0 0  9990
2 40938  49.6591 262.1128 0062458 189.3767 352.1930  1.00291108 36541
BEIDOU-2 IGSO-6 (C13)   
1 41434U 16021A   25253.37177869 -.00000147  00000+0  00000+0 0  9992
2 41434  59.8370  40.8311 0055979 227.5640 310.7675  1.00270886 34679
BEIDOU-2 G7 (C03)       
1 41586U 16037A   25253.61067785 -.00000355  00000+0  00000+0 0  9990
2 41586   1.5245  66.4496 0005239 350.5457 263.2929  1.00268716  4082
BEIDOU-3 M1 (C19)       
1 43001U 17069A   25251.23173446  .00000020  00000+0  00000+0 0  9996
2 43001  56.4427  72.3885 0007295 318.6501  41.3515  1.86231139 53357
BEIDOU-3 M2 (C20)       
1 43002U 17069B   25252.24383623  .00000013  00000+0  00000+0 0  9991
2 43002  56.4429  72.3910 0006191 356.3496   3.6966  1.86230768 53364
BEIDOU-3 M7 (C27)       
1 43107U 18003A   25251.98820931 -.00000040  00000+0  00000+0 0  9995
2 43107  54.5770 312.1103 0002874  98.1206 261.9902  1.86232423 52112
BEIDOU-3 M8 (C28)       
1 43108U 18003B   25253.54319032 -.00000048  00000+0  00000+0 0  9993
2 43108  54.5686 312.0396 0004794 256.2053 103.8144  1.86230838 52156
BEIDOU-3 M4 (C22)       
1 43207U 18018A   25251.83690792  .00000016  00000+0  00000+0 0  9998
2 43207  56.4017  72.4421 0005866  36.7138 323.3798  1.86231041 51506
BEIDOU-3 M3 (C21)       
1 43208U 18018B   25251.90348524  .00000015  00000+0  00000+0 0  9999
2 43208  56.4017  72.4439 0005532 341.6104  18.4225  1.86231012 51502
BEIDOU-3 M9 (C29)       
1 43245U 18029A   25252.12009417 -.00000037  00000+0  00000+0 0  9997
2 43245  54.4477 309.7687 0002060 231.7250 128.3348  1.86232529 50663
BEIDOU-3 M10 (C30)      
1 43246U 18029B   25252.05439247 -.00000036  00000+0  00000+0 0  9997
2 43246  54.4452 309.7980 0002574   3.4504 356.6299  1.86229063 50647
BEIDOU-2 IGSO-7 (C16)   
1 43539U 18057A   25248.68650163 -.00000163  00000+0  00000+0 0  9990
2 43539  55.1701 165.5314 0092415 236.6181 301.5631  1.00286929 26271
BEIDOU-3 M5 (C23)       
1 43581U 18062A   25251.20517847  .00000025  00000+0  00000+0 0  9992
2 43581  54.0962 191.8920 0004408 297.3187  62.6131  1.86228524 48382
BEIDOU-3 M6 (C24)       
1 43582U 18062B   25252.14271861  .00000032  00000+0  00000+0 0  9998
2 43582  54.0958 191.8494 0005677  19.0925 340.9103  1.86229577 48405
BEIDOU-3 M12 (C26)      
1 43602U 18067A   25252.61643271  .00000035  00000+0  00000+0 0  9999
2 43602  54.1895 190.5556 0008030  29.2005 330.8309  1.86227562 47892
BEIDOU-3 M11 (C25)      
1 43603U 18067B   25252.21373829  .00000033  00000+0  00000+0 0  9993
2 43603  54.1867 190.5335 0004699  16.8518 343.1480  1.86227078 47917
BEIDOU-3 M13 (C32)      
1 43622U 18072A   25252.70836770  .00000008  00000+0  00000+0 0  9995
2 43622  56.3759  71.9317 0004132 322.6370  37.3814  1.86231144 47439
BEIDOU-3 M14 (C33)      
1 43623U 18072B   25251.49994219  .00000018  00000+0  00000+0 0  9995
2 43623  56.3765  71.9655 0003654  17.9317 342.1358  1.86231163 47403
BEIDOU-3 M16 (C35)      
1 43647U 18078A   25252.19593421 -.00000037  00000+0  00000+0 0  9997
2 43647  54.3441 309.8270 0005786  23.2600 336.8442  1.86232190 46928
BEIDOU-3 M15 (C34)      
1 43648U 18078B   25252.32512252 -.00000038  00000+0  00000+0 0  9997
2 43648  54.3398 309.8237 0002429  32.2957 327.7967  1.86232214 46949
BEIDOU-3 G1 (C59)       
1 43683U 18085A   25253.54515757 -.00000278  00000+0  00000+0 0  9998
2 43683   2.8707 105.4597 0003908   7.7537 212.8916  1.00274647 25254
BEIDOU-3 M17 (C36)      
1 43706U 18093A   25252.75566296  .00000036  00000+0  00000+0 0  9990
2 43706  54.1795 191.8108 0009097 293.2947 250.1691  1.86228085 46310
BEIDOU-3 M18 (C37)      
1 43707U 18093B   25252.88049044  .00000037  00000+0  00000+0 0  9993
2 43707  54.1803 191.7984 0007591 324.5072  35.4283  1.86229737 46312
BEIDOU-3 IGSO-1 (C38)   
1 44204U 19023A   25251.83927365 -.00000199  00000+0  00000+0 0  9995
2 44204  58.3015  40.5562 0025024 215.3699 153.3943  1.00272322  4391
BEIDOU-2 G8 (C01)       
1 44231U 19027A   25253.61743788 -.00000249  00000+0  00000+0 0  9998
2 44231   1.4205  74.3175 0006500 263.4598  18.9500  1.00271981 23279
BEIDOU-3 IGSO-2 (C39)   
1 44337U 19035A   25247.72162405 -.00000168  00000+0  00000+0 0  9990
2 44337  55.2150 161.3741 0035069 208.7975 349.2962  1.00246132 22801
BEIDOU-3 M24 (C46)      
1 44542U 19061A   25252.41488375  .00000034  00000+0  00000+0 0  9997
2 44542  54.4073 192.1979 0008716   1.9218 358.0642  1.86229277 40562
BEIDOU-3 M23 (C45)      
1 44543U 19061B   25252.17702941  .00000033  00000+0  00000+0 0  9998
2 44543  54.4058 192.1744 0005678 347.0181 126.2932  1.86229325 40564
BEIDOU-3 IGSO-3 (C40)   
1 44709U 19073A   25252.48880234 -.00000156  00000+0  00000+0 0  9998
2 44709  55.2821 283.9318 0045646 191.5070 168.4691  1.00272729 21649
BEIDOU-3 M22 (C44)      
1 44793U 19078A   25252.25626522 -.00000038  00000+0  00000+0 0  9998
2 44793  54.1903 309.7017 0004471  30.3977 329.7059  1.86232067 39410
BEIDOU-3 M21 (C43)      
1 44794U 19078B   25252.39175149 -.00000038  00000+0  00000+0 0  9998
2 44794  54.1624 309.6640 0002617  14.8047 345.2801  1.86227657 39425
BEIDOU-3 M19 (C41)      
1 44864U 19090A   25252.63294242  .00000009  00000+0  00000+0 0  9990
2 44864  56.3101  72.0806 0015410 288.3631  68.3116  1.86231390 39009
BEIDOU-3 M20 (C42)      
1 44865U 19090B   25252.44593412  .00000011  00000+0  00000+0 0  9994
2 44865  56.3119  72.1210 0012966 303.7767  17.1410  1.86231329 38981
BEIDOU-3 G2 (C60)       
1 45344U 20017A   25253.60469784 -.00000142  00000+0  00000+0 0  9997
2 45344   2.8238  41.9667 0001070 292.2256 313.4345  1.00270974 20458
BEIDOU-3 G3 (C61)       
1 45807U 20040A   25253.61067785 -.00000356  00000+0  00000+0 0  9990
2 45807   1.7602  65.5145 0004402 333.5782 281.1746  1.00275420 19267
BEIDOU-3 G4 (C62)       
1 56564U 23066A   25253.36086552 -.00000114  00000+0  00000+0 0  9990
2 56564   1.0291 295.8133 0006074 211.3367 132.4710  1.00271507  8584
BEIDOU-3 M28 (C50)      
1 58654U 23207A   25251.93371367  .00000012  00000+0  00000+0 0  9997
2 58654  55.4994  71.8088 0000659  43.5586 316.4985  1.86229792 11609
BEIDOU-3 M26 (C48)      
1 58655U 23207B   25253.34299664  .00000001  00000+0  00000+0 0  9992
2 58655  55.5029  71.7472 0000941 234.5883 125.4465  1.86231432 11618
BEIDOU-3 M25 (C47)      
1 61186U 24168B   25252.63239297 -.00000043  00000+0  00000+0 0  9996
2 61186  54.7217 311.9822 0004846 278.4965  82.3755  1.86229874  6563
BEIDOU-3 M27 (C49)      
1 61187U 24168C   25252.42475413 -.00000042  00000+0  00000+0 0  9995
2 61187  54.7174 311.9734 0001048 301.2812  55.2839  1.86229937  4026
